[{"OBJECT_NAME":"STARLINK-2763","OBJECT_ID":"2021-044AJ","EPOCH":"2026-03-09T22:24:35.647488","MEAN_MOTION":15.30180059,"ECCENTRICITY":0.00013123,"INCLINATION":53.1603,"RA_OF_ASC_NODE":103.0664,"ARG_OF_PERICENTER":86.0999,"MEAN_ANOMALY":274.0152,"EPHEMERIS_TYPE":0,"CLASSIFICATION_TYPE":"U","NORAD_CAT_ID":48670,"ELEMENT_SET_NO":999,"REV_AT_EPOCH":26399,"BSTAR":2.1771933e-5,"MEAN_MOTION_DOT":2.85e-6,"MEAN_MOTION_DDOT":0},{"OBJECT_NAME":"NUSAT-50 (NANCY ROMAN)","OBJECT_ID":"2024-149AB","EPOCH":"2026-03-09T19:15:16.765632","MEAN_MOTION":15.29713355,"ECCENTRICITY":0.00025229,"INCLINATION":97.3817,"RA_OF_ASC_NODE":150.7693,"ARG_OF_PERICENTER":238.0469,"MEAN_ANOMALY":122.0527,"EPHEMERIS_TYPE":0,"CLASSIFICATION_TYPE":"U","NORAD_CAT_ID":60493,"ELEMENT_SET_NO":999,"REV_AT_EPOCH":8693,"BSTAR":0.0004225155,"MEAN_MOTION_DOT":0.00012094,"MEAN_MOTION_DDOT":0}]
